EYESAT A (AO-27)        
1 22825U 93061C   26167.16078916  .00000088  00000+0  50437-4 0  9996
2 22825  98.6881 234.5747 0009532 102.3705 257.8545 14.30942024706851
ITAMSAT (IO-26)         
1 22826U 93061D   26167.00070187  .00000084  00000+0  48660-4 0  9993
2 22826  98.6828 234.3320 0010096  88.1549 272.0790 14.31368850707146
RADIO ROSTO (RS15)      
1 23439U 94085A   26167.05171201 -.00000054  00000+0 -32993-3 0  9995
2 23439  64.8179 305.0526 0155919   4.0859 356.1299 11.27583453295779
JAS-2 (FO-29)           
1 24278U 96046B   26166.83242779  .00000013  00000+0  45763-4 0  9993
2 24278  98.5240  15.8902 0350884  99.9379 264.1549 13.53274294472983
FORTE                   
1 24920U 97047A   26166.97403979  .00000115  00000+0  69421-4 0  9995
2 24920  69.9540  16.7616 0024625 278.8825  80.9509 14.27944698498510
TECHSAT 1B (GO-32)      
1 25397U 98043D   26167.22147388  .00000030  00000+0  33141-4 0  9995
2 25397  99.0067 159.9557 0001002 165.2007 194.9200 14.24428195451199
ISS (ZARYA)             
1 25544U 98067A   26167.09292088  .00007536  00000+0  14355-3 0  9991
2 25544  51.6337 305.5091 0004805 191.3253 168.7628 15.49253146571585
IMAGE                   
1 26113U 00017A   26162.34581823  .00000011  00000+0  22926-1 0  9995
2 26113  94.2241 315.2958 7436383 288.4674   8.8959  1.68665984161407
CLUSTER II-FM7 (SAMBA)  
1 26410U 00041A   26168.13893488  .00013373  00000+0  00000+0 0  9990
2 26410 149.9159  50.9864 9054007 268.1291 359.6411  0.44868040 20307
CLUSTER II-FM8 (TANGO)  
1 26464U 00045B   26166.18659913  .00011723  00000+0  00000+0 0  9996
2 26464 150.1471  51.6871 9056658 268.6526   2.8141  0.44404213 20308
ODIN                    
1 26702U 01007A   26167.07828886  .00158692  00000+0  10319-2 0  9990
2 26702  97.3827 207.9489 0006782 144.4595 215.7123 15.75459520389227
OMNI-M1                 
1 26857U 01026A   26167.20907280 -.00000001  00000+0  00000+0 0  9997
2 26857  44.8307 245.4893 0014194  53.4474 306.7446  3.92401638205538
PCSAT (NO-44)           
1 26931U 01043C   26167.32117018  .00000076  00000+0  59469-4 0  9993
2 26931  67.0506 246.5117 0006075 264.6172  95.4237 14.31955843290328
PROBA-1                 
1 26958U 01049B   26167.27376993  .00001881  00000+0  12413-3 0  9993
2 26958  97.9596 175.7742 0056400 124.8381 235.8169 15.07493377343484
SAUDISAT 1C (SO-50)     
1 27607U 02058C   26167.27867643  .00000856  00000+0  11841-3 0  9998
2 27607  64.5510 131.7962 0075279 262.6422  96.6125 14.83045303264325
CORIOLIS                
1 27640U 03001A   26167.28113534  .00000077  00000+0  56838-4 0  9999
2 27640  98.7125 174.1797 0013315 211.5347 148.5033 14.19944562214090
CUTE-1 (CO-55)          
1 27844U 03031E   26167.26444773  .00000236  00000+0  12107-3 0  9995
2 27844  98.6736 175.8349 0009467 180.6624 179.4544 14.24335232191549
CUBESAT XI-IV (CO-57)   
1 27848U 03031J   26166.97130938  .00000200  00000+0  10702-3 0  9991
2 27848  98.6765 175.2591 0008944 200.7616 159.3200 14.23620242191208
MOZHAETS 4 (RS22)       
1 27939U 03042A   26167.34069624  .00000437  00000+0  75630-4 0  9993
2 27939  98.3462 351.6754 0009934 272.8490 208.6737 14.73465031215423
